[{"OBJECT_NAME":"KUIPER-00029","OBJECT_ID":"2025-088U","EPOCH":"2026-03-09T22:00:01.999584","MEAN_MOTION":14.81069355,"ECCENTRICITY":9.383e-5,"INCLINATION":51.9005,"RA_OF_ASC_NODE":89.6043,"ARG_OF_PERICENTER":137.8854,"MEAN_ANOMALY":294.3831,"EPHEMERIS_TYPE":0,"CLASSIFICATION_TYPE":"U","NORAD_CAT_ID":63742,"ELEMENT_SET_NO":999,"REV_AT_EPOCH":574,"BSTAR":0.002151491,"MEAN_MOTION_DOT":0.00016671,"MEAN_MOTION_DDOT":0},{"OBJECT_NAME":"FENGYUN 1C DEB","OBJECT_ID":"1999-025BYR","EPOCH":"2026-03-09T23:07:58.594368","MEAN_MOTION":14.406981,"ECCENTRICITY":0.01903045,"INCLINATION":98.317,"RA_OF_ASC_NODE":70.9971,"ARG_OF_PERICENTER":10.2393,"MEAN_ANOMALY":350.2588,"EPHEMERIS_TYPE":0,"CLASSIFICATION_TYPE":"U","NORAD_CAT_ID":31550,"ELEMENT_SET_NO":999,"REV_AT_EPOCH":66710,"BSTAR":0.0010170839,"MEAN_MOTION_DOT":3.98e-5,"MEAN_MOTION_DDOT":0}]
